OBJECT B                
1 51825U 22019B   24320.92448952  .00030867  00000+0  10862-2 0  9991
2 51825  97.4134  30.9357 0013440  67.1350 293.1307 15.29191333150358
